NORAD_CAT_ID,OBJECT_NAME,OBJECT_TYPE,EPOCH,MEAN_MOTION,ECCENTRICITY,INCLINATION,RA_OF_ASC_NODE,ARG_OF_PERICENTER,MEAN_ANOMALY,BSTAR,MEAN_MOTION_DOT,MEAN_MOTION_DDOT,TLE_LINE0,TLE_LINE1,TLE_LINE2,SEMIMAJOR_AXIS,PERIOD,APOGEE,PERIGEE,DECAYED
55923.0,STARLINK-5854,PAYLOAD,2023-07-19 02:49:58,14.98337328,0.0004063,69.9996,216.481,269.0506,91.0188,-9.7744e-05,-1.26e-05,0.0,0 STARLINK-5854,1 55923U 23037K   23200.11804132 -.00001260  00000-0 -97744-4 0  9992,2 55923  69.9996 216.4810 0004063 269.0506  91.0188 14.98337328 19349,6950.17,96.107,574.859,569.211,0.0
55923.0,STARLINK-5854,PAYLOAD,2023-07-20 10:52:39,14.98330512,0.0004098,69.9997,213.1143,268.0135,92.0555,-1.5243e-06,-1.11e-06,0.0,0 STARLINK-5854,1 55923U 23037K   23201.45323957 -.00000111  00000-0 -15243-5 0  9990,2 55923  69.9997 213.1143 0004098 268.0135  92.0555 14.98330512 19547,6950.191,96.107,574.904,569.208,0.0
55923.0,STARLINK-5854,PAYLOAD,2023-07-21 14:06:56,14.98331484,0.0004124,69.9997,210.2526,269.5696,90.499,1.8146e-05,1.23e-06,0.0,0 STARLINK-5854,1 55923U 23037K   23202.58815748  .00000123  00000-0  18146-4 0  9994,2 55923  69.9997 210.2526 0004124 269.5696  90.4990 14.98331484 19711,6950.188,96.107,574.92,569.187,0.0
55923.0,STARLINK-5854,PAYLOAD,2023-07-24 12:36:51,14.98328988,0.0004063,69.9996,202.847,268.3837,91.6856,-1.7419e-05,-3.01e-06,0.0,0 STARLINK-5854,1 55923U 23037K   23205.52559836 -.00000301  00000-0 -17419-4 0  9996,2 55923  69.9996 202.8470 0004063 268.3837  91.6856 14.98328988 19811,6950.196,96.107,574.885,569.237,0.0
55923.0,STARLINK-5854,PAYLOAD,2023-07-25 11:02:44,14.9832977,0.0004069,69.9997,200.4902,267.3724,92.6969,1.1774e-05,4.7e-07,0.0,0 STARLINK-5854,1 55923U 23037K   23206.46023715  .00000047  00000-0  11774-4 0  9995,2 55923  69.9997 200.4902 0004069 267.3724  92.6969 14.98329770 19957,6950.194,96.107,574.887,569.231,0.0
55923.0,STARLINK-5854,PAYLOAD,2023-07-26 09:28:37,14.98330302,0.0003962,69.9999,198.1335,268.0796,91.9909,3.1469e-05,2.82e-06,0.0,0 STARLINK-5854,1 55923U 23037K   23207.39487644  .00000282  00000-0  31469-4 0  9997,2 55923  69.9999 198.1335 0003962 268.0796  91.9909 14.98330302 20096,6950.192,96.107,574.811,569.303,0.0
55923.0,STARLINK-5854,PAYLOAD,2023-07-27 09:30:37,14.98336123,0.0003972,70.0,195.609,267.7544,92.316,4.9259e-05,4.95e-06,0.0,0 STARLINK-5854,1 55923U 23037K   23208.39626986  .00000495  00000-0  49259-4 0  9994,2 55923  70.0000 195.6090 0003972 267.7544  92.3160 14.98336123 20585,6950.174,96.107,574.8,569.278,0.0
55923.0,STARLINK-5854,PAYLOAD,2023-07-27 22:19:42,14.98327723,0.0003863,70.0003,194.2627,266.7485,93.3232,-4.8236e-05,-6.69e-06,0.0,0 STARLINK-5854,1 55923U 23037K   23208.93035716 -.00000669  00000-0 -48236-4 0  9998,2 55923  70.0003 194.2627 0003863 266.7485  93.3232 14.98327723 20320,6950.2,96.107,574.75,569.38,0.0
55923.0,STARLINK-5854,PAYLOAD,2023-07-28 01:31:59,14.98325558,0.0003881,70.0002,193.926,266.5248,93.5467,-6.1861e-05,-8.31e-06,0.0,0 STARLINK-5854,1 55923U 23037K   23209.06387897 -.00000831  00000-0 -61861-4 0  9993,2 55923  70.0002 193.9260 0003881 266.5248  93.5467 14.98325558 20688,6950.207,96.107,574.769,569.374,0.0
55923.0,STARLINK-5854,PAYLOAD,2023-07-28 11:08:47,14.9832647,0.0003885,70.0003,192.9161,266.996,93.0755,-4.6186e-05,-6.44e-06,0.0,0 STARLINK-5854,1 55923U 23037K   23209.46443871 -.00000644  00000-0 -46186-4 0  9997,2 55923  70.0003 192.9161 0003885 266.9960  93.0755 14.98326470 20406,6950.204,96.107,574.769,569.369,0.0
55923.0,STARLINK-5854,PAYLOAD,2023-07-29 03:10:07,14.98330752,0.000386,70.0003,191.2329,267.0344,93.0373,-2.1447e-06,-1.19e-06,0.0,0 STARLINK-5854,1 55923U 23037K   23210.13203413 -.00000119  00000-0 -21447-5 0  9990,2 55923  70.0003 191.2329 0003860 267.0344  93.0373 14.98330752 20847,6950.191,96.107,574.738,569.373,0.0
55923.0,STARLINK-5854,PAYLOAD,2023-07-30 08:00:32,14.98329966,0.0003916,70.0003,188.2035,267.1866,92.8845,7.4739e-05,7.99e-06,0.0,0 STARLINK-5854,1 55923U 23037K   23211.33371251  .00000799  00000-0  74739-4 0  9992,2 55923  70.0003 188.2035 0003916 267.1866  92.8845 14.98329966 21026,6950.193,96.107,574.78,569.336,0.0
55923.0,STARLINK-5854,PAYLOAD,2023-07-31 08:02:33,14.98330599,0.0003793,70.0006,185.6798,267.1306,92.9419,1.5848e-07,-9.1e-07,0.0,0 STARLINK-5854,1 55923U 23037K   23212.33511421 -.00000091  00000-0  15848-6 0  9992,2 55923  70.0006 185.6798 0003793 267.1306  92.9419 14.98330599 21176,6950.191,96.107,574.692,569.42,0.0
55923.0,STARLINK-5854,PAYLOAD,2023-08-01 08:04:34,14.98330089,0.0003752,70.0005,183.1546,267.2199,92.8531,-4.519e-06,-1.47e-06,0.0,0 STARLINK-5854,1 55923U 23037K   23213.33651449 -.00000147  00000-0 -45190-5 0  9993,2 55923  70.0005 183.1546 0003752 267.2199  92.8531 14.98330089 21320,6950.193,96.107,574.665,569.45,0.0
55923.0,STARLINK-5854,PAYLOAD,2023-08-02 08:06:35,14.98335606,0.0003723,70.0005,180.63,266.9445,93.1288,6.5789e-05,6.92e-06,0.0,0 STARLINK-5854,1 55923U 23037K   23214.33790777  .00000692  00000-0  65789-4 0  9990,2 55923  70.0005 180.6300 0003723 266.9445  93.1288 14.98335606 21477,6950.176,96.107,574.628,569.453,0.0
55923.0,STARLINK-5854,PAYLOAD,2023-08-02 14:31:07,14.98330281,0.0003687,70.0006,179.9567,267.1547,92.919,1.9131e-05,1.35e-06,0.0,0 STARLINK-5854,1 55923U 23037K   23214.60495184  .00000135  00000-0  19131-4 0  9996,2 55923  70.0006 179.9567 0003687 267.1547  92.9190 14.98330281 21517,6950.192,96.107,574.62,569.494,0.0
55923.0,STARLINK-5854,PAYLOAD,2023-08-03 14:33:08,14.98327941,0.0003581,70.0008,177.432,268.361,91.7139,-2.1542e-05,-3.5e-06,0.0,0 STARLINK-5854,1 55923U 23037K   23215.60635390 -.00000350  00000-0 -21542-4 0  9992,2 55923  70.0008 177.4320 0003581 268.3610  91.7139 14.98327941 21661,6950.199,96.107,574.553,569.575,0.0
55923.0,STARLINK-5854,PAYLOAD,2023-08-05 01:48:06,14.98331314,0.0003535,70.0009,173.7298,269.4309,90.6445,1.3389e-05,6.7e-07,0.0,0 STARLINK-5854,1 55923U 23037K   23217.07507289  .00000067  00000-0  13389-4 0  9993,2 55923  70.0009 173.7298 0003535 269.4309  90.6445 14.98331314 21882,6950.189,96.107,574.511,569.597,0.0
55923.0,STARLINK-5854,PAYLOAD,2023-08-06 01:50:07,14.98328688,0.0003525,70.0009,171.2057,267.8122,92.2633,7.8765e-05,8.47e-06,0.0,0 STARLINK-5854,1 55923U 23037K   23218.07647125  .00000847  00000-0  78765-4 0  9993,2 55923  70.0009 171.2057 0003525 267.8122  92.2633 14.98328688 22037,6950.197,96.107,574.512,569.612,0.0
55923.0,STARLINK-5854,PAYLOAD,2023-08-06 14:39:12,14.98321241,0.0003429,70.001,169.8583,270.9239,89.1527,6.2404e-05,6.51e-06,0.0,0 STARLINK-5854,1 55923U 23037K   23218.61055722  .00000651  00000-0  62404-4 0  9995,2 55923  70.0010 169.8583 0003429 270.9239  89.1527 14.98321241 22117,6950.22,96.108,574.468,569.702,0.0
55923.0,STARLINK-5854,PAYLOAD,2023-08-08 00:18:00,14.98335139,0.000345,70.001,166.3235,268.4367,91.6397,3.2719e-05,2.97e-06,0.0,0 STARLINK-5854,1 55923U 23037K   23220.01250883  .00000297  00000-0  32719-4 0  9999,2 55923  70.0010 166.3235 0003450 268.4367  91.6397 14.98335139 22328,6950.177,96.107,574.44,569.644,0.0
55923.0,STARLINK-5854,PAYLOAD,2023-08-08 22:43:54,14.98327104,0.0003237,70.0017,163.9673,269.9596,90.1192,2.305e-06,-6.6e-07,0.0,0 STARLINK-5854,1 55923U 23037K   23220.94715330 -.00000066  00000-0  23050-5 0  9998,2 55923  70.0017 163.9673 0003237 269.9596  90.1192 14.98327104 22462,6950.202,96.107,574.317,569.817,0.0
55923.0,STARLINK-5854,PAYLOAD,2023-08-09 06:44:33,14.98332686,0.0003355,70.0014,163.1261,267.4391,92.6384,9.3636e-05,1.024e-05,0.0,0 STARLINK-5854,1 55923U 23037K   23221.28094668  .00001024  00000-0  93636-4 0  9990,2 55923  70.0014 163.1261 0003355 267.4391  92.6384 14.98332686 22518,6950.185,96.107,574.381,569.718,0.0
55923.0,STARLINK-5854,PAYLOAD,2023-08-10 06:46:35,14.98329439,0.0003368,70.0013,160.6024,262.3765,97.7012,-0.00010751,-1.376e-05,0.0,0 STARLINK-5854,1 55923U 23037K   23222.28235264 -.00001376  00000-0 -10751-3 0  9998,2 55923  70.0013 160.6024 0003368 262.3765  97.7012 14.98329439 22661,6950.195,96.107,574.4,569.719,0.0
55923.0,STARLINK-5854,PAYLOAD,2023-08-11 05:12:26,14.98343297,0.0003667,70.0021,158.2445,265.2527,94.8214,9.8957e-05,1.088e-05,0.0,0 STARLINK-5854,1 55923U 23037K   23223.21697875  .00001088  00000-0  98957-4 0  9995,2 55923  70.0021 158.2445 0003667 265.2527  94.8214 14.98343297 22806,6950.152,96.106,574.565,569.468,0.0
55923.0,STARLINK-5854,PAYLOAD,2023-08-11 13:13:08,14.98327137,0.000338,70.0041,157.403,270.7806,89.2966,7.569e-06,-3e-08,0.0,0 STARLINK-5854,1 55923U 23037K   23223.55079183 -.00000003  00000-0  75690-5 0  9995,2 55923  70.0041 157.4030 0003380 270.7806  89.2966 14.98327137 22854,6950.202,96.107,574.416,569.718,0.0
55923.0,STARLINK-5854,PAYLOAD,2023-08-12 13:15:09,14.98328547,0.0003305,70.0015,154.879,269.2108,90.8672,1.3987e-05,7.4e-07,0.0,0 STARLINK-5854,1 55923U 23037K   23224.55219153  .00000074  00000-0  13987-4 0  9996,2 55923  70.0015 154.8790 0003305 269.2108  90.8672 14.98328547 23000,6950.197,96.107,574.359,569.765,0.0
55923.0,STARLINK-5854,PAYLOAD,2023-08-13 02:04:13,14.98345328,0.0003651,70.0012,153.5326,267.7491,92.325,-0.0001534,-1.924e-05,0.0,0 STARLINK-5854,1 55923U 23037K   23225.08626658 -.00001924  00000-0 -15340-3 0  9998,2 55923  70.0012 153.5326 0003651 267.7491  92.3250 14.98345328 23083,6950.145,96.106,574.548,569.473,0.0
55923.0,STARLINK-5854,PAYLOAD,2023-08-14 02:06:14,14.98333653,0.0003303,70.0011,151.0082,268.4483,91.6298,1.1655e-05,4.6e-07,0.0,0 STARLINK-5854,1 55923U 23037K   23226.08766685  .00000046  00000-0  11655-4 0  9992,2 55923  70.0011 151.0082 0003303 268.4483  91.6298 14.98333653 23236,6950.182,96.107,574.342,569.751,0.0
55923.0,STARLINK-5854,PAYLOAD,2023-08-15 02:08:15,14.98332044,0.0003248,70.0007,148.4832,267.4547,92.624,-7.688e-05,-1.01e-05,0.0,0 STARLINK-5854,1 55923U 23037K   23227.08906905 -.00001010  00000-0 -76880-4 0  9999,2 55923  70.0007 148.4832 0003248 267.4547  92.6240 14.98332044 23389,6950.187,96.107,574.309,569.794,0.0
